satname,norad_id,inclination_deg,eccentricity,mean_motion_rev_per_day,perigee_km,apogee_km,l1,l2
STARLINK-1266,45383,53.0547,0.0001519,15.06368811,546.2551744142465,548.359124346829,1 45383U 20019Z   25321.62292991 -.00006439  00000+0 -41409-3 0  9992,2 45383  53.0547 289.7081 0001519  95.1988 264.9174 15.06368811313111
STARLINK-1267,45384,53.0549,0.000152,15.06411824,546.1226718457447,548.2279667908169,1 45384U 20019AA  25321.60824265  .00004053  00000+0  29076-3 0  9990,2 45384  53.0549 290.4289 0001520  94.6951 265.4212 15.06411824313100
STARLINK-1272,45386,53.0534,0.0006855,15.36436051,451.9730991694896,461.34360359623497,1 45386U 20019AC  25321.81440656  .00079078  00000+0  21791-2 0  9997,2 45386  53.0534 283.2282 0006855  60.0591 300.1091 15.36436051313229
STARLINK-1274,45387,53.0344,0.000383,15.31238619,469.4920465274636,474.7393400905394,1 45387U 20019AD  25321.83348690  .00053649  00000+0  17528-2 0  9994,2 45387  53.0344 271.0943 0003830  15.4845 344.6271 15.31238619313390
STARLINK-1280,45388,53.0542,0.000622,15.42115924,435.6247655424413,444.1063607309834,1 45388U 20019AE  25321.24141147  .00063445  00000+0  14566-2 0  9992,2 45388  53.0542 304.7388 0006220  46.1373 314.0144 15.42115924312867
STARLINK-1283,45389,53.0568,0.000806,15.32687081,462.2813128711814,473.31696192466734,1 45389U 20019AF  25321.62942941  .00052209  00000+0  16299-2 0  9997,2 45389  53.0568 283.1253 0008060  61.1630 299.0178 15.32687081313210
STARLINK-1284,45390,53.055,0.0001251,15.06408663,546.3186494351148,548.0513650013208,1 45390U 20019AG  25321.62659119  .00003301  00000+0  24035-3 0  9998,2 45390  53.0550 289.6930 0001251  86.0640 274.0492 15.06408663313117
STARLINK-1292,45394,53.034,0.0002713,16.27561655,197.3163598509991,200.88516906199402,1 45394U 20019AL  25321.44653668  .02915881  12009-4  78125-3 0  9998,2 45394  53.0340 228.3225 0002713 195.8300 164.2657 16.27561655313692
STARLINK-1297,45395,53.0549,0.0001654,15.06401833,546.0604883406877,548.3513917852606,1 45395U 20019AM  25321.19903176  .00002994  00000+0  21979-3 0  9991,2 45395  53.0549 291.6085 0001654  94.4406 265.6772 15.06401833312235
STARLINK-1307,45397,53.0557,0.0001817,15.06413556,545.9116827783537,548.4283393461728,1 45397U 20019AP  25321.65609220  .00005778  00000+0  40635-3 0  9990,2 45397  53.0557 289.5572 0001817  85.4613 274.6583 15.06413556312947
STARLINK-1255,45399,53.0482,0.0004761,15.3276153,464.3182112833492,470.83670058829193,1 45399U 20019AR  25321.83302838  .00036780  00000+0  11519-2 0  9992,2 45399  53.0482 273.2471 0004761  74.4463 285.7063 15.32761530313175
STARLINK-1260,45404,53.0538,0.0001323,15.06410506,546.2631393942938,548.0955781028188,1 45404U 20019AW  25321.85603338  .00014636  00000+0  99912-3 0  9990,2 45404  53.0538 278.6563 0001323 111.9991 248.1139 15.06410506313003
STARLINK-1263,45405,53.0568,0.0001173,15.06388755,546.4336750295597,548.0583698866285,1 45405U 20019AX  25321.17783958 -.00000074  00000+0  13919-4 0  9999,2 45405  53.0568 281.7067 0001173  70.0314 290.0801 15.06388755312908
STARLINK-1265,45406,53.0544,0.0001841,15.0640509,545.9210040677544,548.470911662841,1 45406U 20019AY  25321.84866619 -.00000554  00000+0 -18275-4 0  9994,2 45406  53.0544 278.6931 0001841  82.0706 278.0492 15.06405090313004
STARLINK-1278,45408,53.054,0.000595,15.35478848,455.4301610648199,463.566947374341,1 45408U 20019BA  25321.68173365  .00090487  00000+0  25662-2 0  9995,2 45408  53.0540 303.8847 0005950  45.2470 314.9015 15.35478848312646
STARLINK-1296,45412,53.0545,0.0001318,15.06408277,546.2734326450636,548.0989478380106,1 45412U 20019BE  25321.85235112  .00003922  00000+0  28196-3 0  9992,2 45412  53.0545 278.6733 0001318  87.0825 273.0315 15.06408277313007
STARLINK-1298,45413,53.0469,0.0008505,15.55232119,395.71190947341074,407.24403454079584,1 45413U 20019BF  25321.10134259  .00053251  00000+0  77434-3 0  9990,2 45413  53.0469 252.5391 0008505  21.8123 338.3247 15.55232119313403
STARLINK-1309,45414,53.055,0.0001601,15.0640762,546.07945926907,548.2969483993375,1 45414U 20019BG  25321.86709021  .00007071  00000+0  49305-3 0  9994,2 45414  53.0550 278.6128 0001601  86.0405 274.0767 15.06407620312991
STARLINK-1316,45415,53.0591,0.0001787,15.06390284,546.0037711302848,548.4789013476566,1 45415U 20019BH  25321.62752065 -.00003819  00000+0 -23767-3 0  9997,2 45415  53.0591 279.6819 0001787 104.0299 256.0889 15.06390284312994
STARLINK-1318,45416,53.0501,0.0005853,15.6279945,375.6196453441471,383.53022293425147,1 45416U 20019BJ  25321.77760676  .00066239  00000+0  72158-3 0  9992,2 45416  53.0501 239.8810 0005853  94.3968 265.7715 15.62799450313555
STARLINK-1286,45417,53.0545,0.0004228,15.37802217,449.721742406673,455.49782188565587,1 45417U 20019BK  25321.23992350  .00041937  00000+0  11166-2 0  9999,2 45417  53.0545 306.2163 0004228  53.2702 306.8689 15.37802217312845
STARLINK-1308,45419,53.0543,0.0001196,15.0640919,546.3551237361826,548.0116603739634,1 45419U 20019BM  25321.66161957  .00004044  00000+0  29013-3 0  9998,2 45419  53.0543 309.5313 0001196  85.8714 274.2412 15.06409190312585
STARLINK-1329,45531,53.0552,0.000137,15.06421083,546.1981784332984,548.0957062334983,1 45531U 20025A   25321.82931610  .00002036  00000+0  15544-3 0  9992,2 45531  53.0552 248.7780 0001370  93.5662 266.5484 15.06421083308239
STARLINK-1338,45532,53.0546,0.0002088,15.06397814,545.7722435437254,548.6642718993508,1 45532U 20025B   25321.50864737  .00032575  00000+0  21958-2 0  9999,2 45532  53.0546 250.2174 0002088  93.2480 266.8748 15.06397814308184
STARLINK-1350,45535,53.0734,0.0002349,15.32909849,465.527915945725,468.7438251403055,1 45535U 20025E   25321.70131718  .00012948  00000+0  41247-3 0  9996,2 45535  53.0734 197.8030 0002349  90.1839 269.9431 15.32909849308962
STARLINK-1362,45538,53.054,0.0001541,15.0640875,546.117548498094,548.2519326585407,1 45538U 20025H   25321.80622574  .00012122  00000+0  83106-3 0  9999,2 45538  53.0540 248.5995 0001541  91.0403 269.0763 15.06408750308239
STARLINK-1368,45540,53.055,0.0002228,15.06413901,545.6259955365285,548.7119118694982,1 45540U 20025K   25321.81089285  .00011232  00000+0  77145-3 0  9996,2 45540  53.0550 248.8622 0002228  87.7683 272.3561 15.06413901308224
STARLINK-1371,45542,53.0547,0.0002143,15.0640081,545.7249737420916,548.6931770700094,1 45542U 20025M   25321.51601943  .00000256  00000+0  36090-4 0  9995,2 45542  53.0547 250.1822 0002143  85.3021 274.8212 15.06400810308186
STARLINK-1372,45543,53.0551,0.0001621,15.06425133,546.0119434690359,548.2571164990577,1 45543U 20025N   25321.81826743  .00008393  00000+0  58127-3 0  9990,2 45543  53.0551 248.8282 0001621  98.1731 261.9442 15.06425133307328
STARLINK-1373,45544,53.0537,0.0001242,15.06404887,546.3364535969868,548.0567064582656,1 45544U 20025P   25321.83669190  .00010040  00000+0  69187-3 0  9994,2 45544  53.0537 248.7440 0001242  90.5225 269.5906 15.06404887308234
STARLINK-1294,45551,53.0457,0.0006585,15.63119898,374.2019792336896,383.1006694568514,1 45551U 20025W   25321.91668980  .00049800  00000+0  53816-3 0  9995,2 45551  53.0457 174.6991 0006585 115.2777 303.0991 15.63119898  5996
STARLINK-1325,45554,53.0522,0.0003344,15.67964969,362.4701788282455,366.9798049284136,1 45554U 20025Z   25321.91668980  .00322631  00000+0  27556-2 0  9995,2 45554  53.0522 167.3025 0003344 236.4227 173.0080 15.67964969  5990
STARLINK-1327,45555,53.0538,0.0001518,15.06407894,546.136099832409,548.238628309342,1 45555U 20025AA  25321.74270733  .00015712  00000+0  10711-2 0  9996,2 45555  53.0538 229.1675 0001518  77.5027 282.6132 15.06407894308497
STARLINK-1356,45564,53.054,0.0001466,15.06405628,546.1790554126637,548.209562552458,1 45564U 20025AK  25321.74638716  .00017094  00000+0  11635-2 0  9996,2 45564  53.0540 229.1494 0001466 105.2577 254.8574 15.06405628308494
STARLINK-1357,45565,53.0592,0.0009333,15.35007107,454.51651235718873,467.28225767345884,1 45565U 20025AL  25321.72489213  .00055965  00000+0  16215-2 0  9999,2 45565  53.0592 210.9868 0009333  71.2684 288.9330 15.35007107308756
STARLINK-1361,45567,53.054,0.0001547,15.06408185,546.1151246645686,548.2578197468692,1 45567U 20025AN  25321.76481007  .00007897  00000+0  54833-3 0  9998,2 45567  53.0540 229.0606 0001547 116.8582 243.2565 15.06408185308500
STARLINK-1363,45568,53.0547,0.0005638,15.44275683,429.66676112184814,437.3475710835446,1 45568U 20025AP  25321.00077660  .00077799  00000+0  16561-2 0  9995,2 45568  53.0547 225.8880 0005638 118.5039 241.6535 15.44275683308479
STARLINK-1366,45569,53.0524,0.0005028,15.42519187,435.24972371658623,442.104712094113,1 45569U 20025AQ  25321.75489804  .00023255  00000+0  53559-3 0  9992,2 45569  53.0524 221.9293 0005028 114.2908 245.8622 15.42519187308595
STARLINK-1376,45570,53.0552,0.0001377,15.06394409,546.2750707450159,548.1823164570342,1 45570U 20025AR  25321.76113836  .00002666  00000+0  19786-3 0  9991,2 45570  53.0552 229.0849 0001377  97.0388 263.0758 15.06394409308496
STARLINK-1320,45572,53.0561,0.0010091,15.44946914,424.66242024737767,438.40569837928433,1 45572U 20025AT  25320.96767845  .00031594  00000+0  66584-3 0  9999,2 45572  53.0561 171.6382 0010091  80.4100 279.8046 15.44946914309259
STARLINK-1321,45573,53.0568,0.0001564,15.06411404,546.0934874931872,548.2597255893133,1 45573U 20025AU  25321.74730060 -.00007427  00000+0 -48008-3 0  9997,2 45573  53.0568 219.1478 0001564  94.4549 265.6618 15.06411404308333
STARLINK-1328,45576,53.0481,0.0010156,15.74893581,338.1060751537407,351.76197702192894,1 45576U 20025AX  25321.91668980  .00112453  00000+0  73687-3 0  9995,2 45576  53.0481 186.5823 0010156 103.8042  90.9684 15.74893581  6018
STARLINK-1331,45578,53.0553,0.0001341,15.06387609,546.3208404946436,548.1782291632844,1 45578U 20025AZ  25321.72518543 -.00003572  00000+0 -22109-3 0  9991,2 45578  53.0553 219.2473 0001341  90.9589 269.1553 15.06387609308646
